CZ-2C R/B               
1 54039U 22132E   26001.61413481  .00049669  00000+0  70185-3 0  9995
2 54039  97.2938   3.2113 0019329 347.5190  12.5584 15.56181604179924
GSLV R/B                
1 54149U 22138AN  26001.58591291  .00006010  00000+0  52729-3 0  9992
2 54149  87.3819 188.8261 0023317  40.2695 320.0258 14.96252877173896
XRISM                   
1 57800U 23137A   26001.26278999  .00009325  00000+0  54493-3 0  9993
2 57800  31.0036 359.4782 0007591  83.1745 276.9757 15.10582373127584
ACS3                    
1 59588U 24077B   26001.46253229  .00043687  00000+0  36703-1 0  9994
2 59588  97.2531 317.6610 0070538 289.0008  70.3521 13.86572225 84874
SZ-21 MODULE            
1 66515U 25246C   26001.02753310  .00038909  00000+0  40785-3 0  9997
2 66515  41.4762 258.2958 0002791  10.0529 350.0366 15.63632096  7465
