CCSDS_OMM_VERS = 2.0
CREATION_DATE  = 
ORIGINATOR     = 

OBJECT_NAME    = CZ-2C R/B
OBJECT_ID      = 2022-132E
CENTER_NAME    = EARTH
REF_FRAME      = TEME
TIME_SYSTEM    = UTC
MEAN_ELEMENT_THEORY = SGP/SGP4

EPOCH          = 2026-01-01T14:44:21.247584
MEAN_MOTION    = 15.56181604
ECCENTRICITY   = .00193297
INCLINATION    = 97.2938
RA_OF_ASC_NODE = 3.2113
ARG_OF_PERICENTER = 347.5190
MEAN_ANOMALY   = 12.5584

EPHEMERIS_TYPE = 0
CLASSIFICATION_TYPE = U
NORAD_CAT_ID   = 54039
ELEMENT_SET_NO = 999
REV_AT_EPOCH   = 17992
BSTAR          = .70185056E-3
MEAN_MOTION_DOT = .49669E-3
MEAN_MOTION_DDOT = 0

CCSDS_OMM_VERS = 2.0
CREATION_DATE  = 
ORIGINATOR     = 

OBJECT_NAME    = GSLV R/B
OBJECT_ID      = 2022-138AN
CENTER_NAME    = EARTH
REF_FRAME      = TEME
TIME_SYSTEM    = UTC
MEAN_ELEMENT_THEORY = SGP/SGP4

EPOCH          = 2026-01-01T14:03:42.875424
MEAN_MOTION    = 14.96252877
ECCENTRICITY   = .00233171
INCLINATION    = 87.3819
RA_OF_ASC_NODE = 188.8261
ARG_OF_PERICENTER = 40.2695
MEAN_ANOMALY   = 320.0258

EPHEMERIS_TYPE = 0
CLASSIFICATION_TYPE = U
NORAD_CAT_ID   = 54149
ELEMENT_SET_NO = 999
REV_AT_EPOCH   = 17389
BSTAR          = .52728908E-3
MEAN_MOTION_DOT = .601E-4
MEAN_MOTION_DDOT = 0

CCSDS_OMM_VERS = 2.0
CREATION_DATE  = 
ORIGINATOR     = 

OBJECT_NAME    = XRISM
OBJECT_ID      = 2023-137A
CENTER_NAME    = EARTH
REF_FRAME      = TEME
TIME_SYSTEM    = UTC
MEAN_ELEMENT_THEORY = SGP/SGP4

EPOCH          = 2026-01-01T06:18:25.055136
MEAN_MOTION    = 15.10582373
ECCENTRICITY   = .00075918
INCLINATION    = 31.0036
RA_OF_ASC_NODE = 359.4782
ARG_OF_PERICENTER = 83.1745
MEAN_ANOMALY   = 276.9757

EPHEMERIS_TYPE = 0
CLASSIFICATION_TYPE = U
NORAD_CAT_ID   = 57800
ELEMENT_SET_NO = 999
REV_AT_EPOCH   = 12758
BSTAR          = .5449306E-3
MEAN_MOTION_DOT = .9325E-4
MEAN_MOTION_DDOT = 0

CCSDS_OMM_VERS = 2.0
CREATION_DATE  = 
ORIGINATOR     = 

OBJECT_NAME    = ACS3
OBJECT_ID      = 2024-077B
CENTER_NAME    = EARTH
REF_FRAME      = TEME
TIME_SYSTEM    = UTC
MEAN_ELEMENT_THEORY = SGP/SGP4

EPOCH          = 2026-01-01T11:06:02.789856
MEAN_MOTION    = 13.86572225
ECCENTRICITY   = .00705382
INCLINATION    = 97.2531
RA_OF_ASC_NODE = 317.6610
ARG_OF_PERICENTER = 289.0008
MEAN_ANOMALY   = 70.3521

EPHEMERIS_TYPE = 0
CLASSIFICATION_TYPE = U
NORAD_CAT_ID   = 59588
ELEMENT_SET_NO = 999
REV_AT_EPOCH   = 8487
BSTAR          = .36702766E-1
MEAN_MOTION_DOT = .43687E-3
MEAN_MOTION_DDOT = 0

CCSDS_OMM_VERS = 2.0
CREATION_DATE  = 
ORIGINATOR     = 

OBJECT_NAME    = SZ-21 MODULE
OBJECT_ID      = 2025-246C
CENTER_NAME    = EARTH
REF_FRAME      = TEME
TIME_SYSTEM    = UTC
MEAN_ELEMENT_THEORY = SGP/SGP4

EPOCH          = 2026-01-01T00:39:38.859840
MEAN_MOTION    = 15.63632096
ECCENTRICITY   = .00027915
INCLINATION    = 41.4762
RA_OF_ASC_NODE = 258.2958
ARG_OF_PERICENTER = 10.0529
MEAN_ANOMALY   = 350.0366

EPHEMERIS_TYPE = 0
CLASSIFICATION_TYPE = U
NORAD_CAT_ID   = 66515
ELEMENT_SET_NO = 999
REV_AT_EPOCH   = 746
BSTAR          = .40784758E-3
MEAN_MOTION_DOT = .38909E-3
MEAN_MOTION_DDOT = 0

